IRIDIUM 33 DEB          
1 35749U 97051SC  17345.31642252  .00001236  00000-0  29437-3 0  9995
2 35749  86.3807 192.6575 0016054 191.1961 168.8890 14.52978422433016
